CTC1_L_00338001-01
1 25654U 26234JP  26037.47804398  .00000000  00000+0  00000-0 0  9999
2 25654  55.0000   0.0000 0000000   0.0000   0.0000 13.81096363    15
CTC1_L_00338001-02
1 25655U 24602CE  26037.47804398  .00000000  00000+0  00000-0 0  9997
2 25655  55.0000   0.0000 0000000   0.0000  90.0000 13.81096363    15
CTC1_L_00338001-03
1 25656U 22121SH  26037.47804398  .00000000  00000+0  00000-0 0  9992
2 25656  55.0000   0.0000 0000000   0.0000 180.0000 13.81096363    16
CTC1_L_00338001-04
1 25657U 22923FK  26037.47804398  .00000000  00000+0  00000-0 0  9993
2 25657  55.0000   0.0000 0000000   0.0000 270.0000 13.81096363    17
CTC1_L_00338002-01
1 25658U 26378GZ  26037.47804398  .00000000  00000+0  00000-0 0  9992
2 25658  55.0000  12.0000 0000000   0.0000  12.0000 13.81096363    15
CTC1_L_00338002-02
1 25659U 25815XI  26037.47804398  .00000000  00000+0  00000-0 0  9998
2 25659  55.0000  12.0000 0000000   0.0000 102.0000 13.81096363    16
CTC1_L_00338002-03
1 25660U 23757QU  26037.47804398  .00000000  00000+0  00000-0 0  9993
2 25660  55.0000  12.0000 0000000   0.0000 192.0000 13.81096363    17
CTC1_L_00338002-04
1 25661U 24926LN  26037.47804398  .00000000  00000+0  00000-0 0  9993
2 25661  55.0000  12.0000 0000000   0.0000 282.0000 13.81096363    18
CTC1_L_00338003-01
1 25662U 23632SG  26037.47804398  .00000000  00000+0  00000-0 0  9997
2 25662  55.0000  24.0000 0000000   0.0000  24.0000 13.81096363    16
CTC1_L_00338003-02
1 25663U 25907YW  26037.47804398  .00000000  00000+0  00000-0 0  9995
2 25663  55.0000  24.0000 0000000   0.0000 114.0000 13.81096363    17
CTC1_L_00338003-03
1 25664U 26479ZS  26037.47804398  .00000000  00000+0  00000-0 0  9991
2 25664  55.0000  24.0000 0000000   0.0000 204.0000 13.81096363    18
CTC1_L_00338003-04
1 25665U 23279YT  26037.47804398  .00000000  00000+0  00000-0 0  9997
2 25665  55.0000  24.0000 0000000   0.0000 294.0000 13.81096363    18
CTC1_L_00338004-01
1 25666U 26598LA  26037.47804398  .00000000  00000+0  00000-0 0  9995
2 25666  55.0000  36.0000 0000000   0.0000  36.0000 13.81096363    16
CTC1_L_00338004-02
1 25667U 26660EE  26037.47804398  .00000000  00000+0  00000-0 0  9996
2 25667  55.0000  36.0000 0000000   0.0000 126.0000 13.81096363    17
CTC1_L_00338004-03
1 25668U 25454VC  26037.47804398  .00000000  00000+0  00000-0 0  9997
2 25668  55.0000  36.0000 0000000   0.0000 216.0000 13.81096363    18
CTC1_L_00338004-04
1 25669U 22809KV  26037.47804398  .00000000  00000+0  00000-0 0  9999
2 25669  55.0000  36.0000 0000000   0.0000 306.0000 13.81096363    19
CTC1_L_00338005-01
1 25670U 26322EO  26037.47804398  .00000000  00000+0  00000-0 0  9995
2 25670  55.0000  48.0000 0000000   0.0000  48.0000 13.81096363    17
CTC1_L_00338005-02
1 25671U 25799MV  26037.47804398  .00000000  00000+0  00000-0 0  9993
2 25671  55.0000  48.0000 0000000   0.0000 138.0000 13.81096363    18
CTC1_L_00338005-03
1 25672U 25150GH  26037.47804398  .00000000  00000+0  00000-0 0  9995
2 25672  55.0000  48.0000 0000000   0.0000 228.0000 13.81096363    19
CTC1_L_00338005-04
1 25673U 23701ZK  26037.47804398  .00000000  00000+0  00000-0 0  9996
2 25673  55.0000  48.0000 0000000   0.0000 318.0000 13.81096363    10
CTC1_L_00338006-01
1 25674U 25839HC  26037.47804398  .00000000  00000+0  00000-0 0  9991
2 25674  55.0000  60.0000 0000000   0.0000  60.0000 13.81096363    19
CTC1_L_00338006-02
1 25675U 24354ET  26037.47804398  .00000000  00000+0  00000-0 0  9993
2 25675  55.0000  60.0000 0000000   0.0000 150.0000 13.81096363    10
CTC1_L_00338006-03
1 25676U 23773OC  26037.47804398  .00000000  00000+0  00000-0 0  9998
2 25676  55.0000  60.0000 0000000   0.0000 240.0000 13.81096363    11
CTC1_L_00338006-04
1 25677U 23391LJ  26037.47804398  .00000000  00000+0  00000-0 0  9995
2 25677  55.0000  60.0000 0000000   0.0000 330.0000 13.81096363    12
CTC1_L_00338007-01
1 25678U 23541LE  26037.47804398  .00000000  00000+0  00000-0 0  9993
2 25678  55.0000  72.0000 0000000   0.0000  72.0000 13.81096363    19
CTC1_L_00338007-02
1 25679U 24258XL  26037.47804398  .00000000  00000+0  00000-0 0  9990
2 25679  55.0000  72.0000 0000000   0.0000 162.0000 13.81096363    10
CTC1_L_00338007-03
1 25680U 26646T   26037.47804398  .00000000  00000+0  00000-0 0  9995
2 25680  55.0000  72.0000 0000000   0.0000 252.0000 13.81096363    12
CTC1_L_00338007-04
1 25681U 26907KH  26037.47804398  .00000000  00000+0  00000-0 0  9996
2 25681  55.0000  72.0000 0000000   0.0000 342.0000 13.81096363    13
CTC1_L_00338008-01
1 25682U 23117ZK  26037.47804398  .00000000  00000+0  00000-0 0  9997
2 25682  55.0000  84.0000 0000000   0.0000  84.0000 13.81096363    10
CTC1_L_00338008-02
1 25683U 26050CY  26037.47804398  .00000000  00000+0  00000-0 0  9997
2 25683  55.0000  84.0000 0000000   0.0000 174.0000 13.81096363    11
CTC1_L_00338008-03
1 25684U 24762MR  26037.47804398  .00000000  00000+0  00000-0 0  9996
2 25684  55.0000  84.0000 0000000   0.0000 264.0000 13.81096363    12
CTC1_L_00338008-04
1 25685U 24451XE  26037.47804398  .00000000  00000+0  00000-0 0  9992
2 25685  55.0000  84.0000 0000000   0.0000 354.0000 13.81096363    13
CTC1_L_00338009-01
1 25686U 25262QD  26037.47804398  .00000000  00000+0  00000-0 0  9994
2 25686  55.0000  96.0000 0000000   0.0000  96.0000 13.81096363    10
CTC1_L_00338009-02
1 25687U 25947ED  26037.47804398  .00000000  00000+0  00000-0 0  9995
2 25687  55.0000  96.0000 0000000   0.0000 186.0000 13.81096363    11
CTC1_L_00338009-03
1 25688U 26444OX  26037.47804398  .00000000  00000+0  00000-0 0  9999
2 25688  55.0000  96.0000 0000000   0.0000 276.0000 13.81096363    12
CTC1_L_00338009-04
1 25689U 22735LD  26037.47804398  .00000000  00000+0  00000-0 0  9999
2 25689  55.0000  96.0000 0000000   0.0000   6.0000 13.81096363    14
CTC1_L_00338010-01
1 25690U 24110MT  26037.47804398  .00000000  00000+0  00000-0 0  9990
2 25690  55.0000 108.0000 0000000   0.0000 108.0000 13.81096363    13
CTC1_L_00338010-02
1 25691U 25770PR  26037.47804398  .00000000  00000+0  00000-0 0  9994
2 25691  55.0000 108.0000 0000000   0.0000 198.0000 13.81096363    13
CTC1_L_00338010-03
1 25692U 23551XH  26037.47804398  .00000000  00000+0  00000-0 0  9990
2 25692  55.0000 108.0000 0000000   0.0000 288.0000 13.81096363    14
CTC1_L_00338010-04
1 25693U 24821SP  26037.47804398  .00000000  00000+0  00000-0 0  9992
2 25693  55.0000 108.0000 0000000   0.0000  18.0000 13.81096363    16
CTC1_L_00338011-01
1 25694U 25285KS  26037.47804398  .00000000  00000+0  00000-0 0  9998
2 25694  55.0000 120.0000 0000000   0.0000 120.0000 13.81096363    15
CTC1_L_00338011-02
1 25695U 23064NE  26037.47804398  .00000000  00000+0  00000-0 0  9992
2 25695  55.0000 120.0000 0000000   0.0000 210.0000 13.81096363    16
CTC1_L_00338011-03
1 25696U 25479NU  26037.47804398  .00000000  00000+0  00000-0 0  9995
2 25696  55.0000 120.0000 0000000   0.0000 300.0000 13.81096363    17
CTC1_L_00338011-04
1 25697U 26495FK  26037.47804398  .00000000  00000+0  00000-0 0  9995
2 25697  55.0000 120.0000 0000000   0.0000  30.0000 13.81096363    18
CTC1_L_00338012-01
1 25698U 22528IS  26037.47804398  .00000000  00000+0  00000-0 0  9999
2 25698  55.0000 132.0000 0000000   0.0000 132.0000 13.81096363    15
CTC1_L_00338012-02
1 25699U 23399VE  26037.47804398  .00000000  00000+0  00000-0 0  9997
2 25699  55.0000 132.0000 0000000   0.0000 222.0000 13.81096363    16
CTC1_L_00338012-03
1 25700U 22139NY  26037.47804398  .00000000  00000+0  00000-0 0  9991
2 25700  55.0000 132.0000 0000000   0.0000 312.0000 13.81096363    19
CTC1_L_00338012-04
1 25701U 23242SF  26037.47804398  .00000000  00000+0  00000-0 0  9998
2 25701  55.0000 132.0000 0000000   0.0000  42.0000 13.81096363    10
CTC1_L_00338013-01
1 25702U 23077GP  26037.47804398  .00000000  00000+0  00000-0 0  9995
2 25702  55.0000 144.0000 0000000   0.0000 144.0000 13.81096363    17
CTC1_L_00338013-02
1 25703U 23988UG  26037.47804398  .00000000  00000+0  00000-0 0  9997
2 25703  55.0000 144.0000 0000000   0.0000 234.0000 13.81096363    18
CTC1_L_00338013-03
1 25704U 24195MP  26037.47804398  .00000000  00000+0  00000-0 0  9999
2 25704  55.0000 144.0000 0000000   0.0000 324.0000 13.81096363    19
CTC1_L_00338013-04
1 25705U 22609WM  26037.47804398  .00000000  00000+0  00000-0 0  9998
2 25705  55.0000 144.0000 0000000   0.0000  54.0000 13.81096363    10
CTC1_L_00338014-01
1 25706U 26019EV  26037.47804398  .00000000  00000+0  00000-0 0  9998
2 25706  55.0000 156.0000 0000000   0.0000 156.0000 13.81096363    17
CTC1_L_00338014-02
1 25707U 22088BF  26037.47804398  .00000000  00000+0  00000-0 0  9991
2 25707  55.0000 156.0000 0000000   0.0000 246.0000 13.81096363    18
CTC1_L_00338014-03
1 25708U 25908BN  26037.47804398  .00000000  00000+0  00000-0 0  9996
2 25708  55.0000 156.0000 0000000   0.0000 336.0000 13.81096363    19
CTC1_L_00338014-04
1 25709U 22554WL  26037.47804398  .00000000  00000+0  00000-0 0  9991
2 25709  55.0000 156.0000 0000000   0.0000  66.0000 13.81096363    10
CTC1_L_00338015-01
1 25710U 23670XE  26037.47804398  .00000000  00000+0  00000-0 0  9993
2 25710  55.0000 168.0000 0000000   0.0000 168.0000 13.81096363    18
CTC1_L_00338015-02
1 25711U 24733AT  26037.47804398  .00000000  00000+0  00000-0 0  9995
2 25711  55.0000 168.0000 0000000   0.0000 258.0000 13.81096363    19
CTC1_L_00338015-03
1 25712U 24431MH  26037.47804398  .00000000  00000+0  00000-0 0  9991
2 25712  55.0000 168.0000 0000000   0.0000 348.0000 13.81096363    10
CTC1_L_00338015-04
1 25713U 24744MU  26037.47804398  .00000000  00000+0  00000-0 0  9999
2 25713  55.0000 168.0000 0000000   0.0000  78.0000 13.81096363    11
CTC1_L_00338016-01
1 25714U 22406Y   26037.47804398  .00000000  00000+0  00000-0 0  9993
2 25714  55.0000 180.0000 0000000   0.0000 180.0000 13.81096363    10
CTC1_L_00338016-02
1 25715U 23265BQ  26037.47804398  .00000000  00000+0  00000-0 0  9998
2 25715  55.0000 180.0000 0000000   0.0000 270.0000 13.81096363    11
